STARLINK-35634          
1 66173U 25240AD  26067.40174160  .00045192  00000+0  15284-2 0  9992
2 66173  53.1600  68.6113 0001348  66.2504 293.8638 15.30206861 21794
STARLINK-35363          
1 66178U 25243B   26067.52298617  .00034809  00000+0  11820-2 0  9992
2 66178  53.1577 250.7749 0001149 109.7223 250.3901 15.30195213 20474
STARLINK-35346          
1 66179U 25243C   26066.80769306  .00025981  00000+0  88509-3 0  9991
2 66179  53.1573 254.1324 0001000 106.4988 253.6123 15.30242634 20366
STARLINK-35335          
1 66180U 25243D   26067.52931859  .00033264  00000+0  11297-2 0  9999
2 66180  53.1582 250.8178 0001840 108.2636 251.8565 15.30213145 20477
STARLINK-35342          
1 66181U 25243E   26067.53142799  .00034592  00000+0  11741-2 0  9997
2 66181  53.1566 250.8292 0001332 100.8916 259.2235 15.30215096 20475
STARLINK-35333          
1 66182U 25243F   26067.53353701  .00024805  00000+0  84605-3 0  9991
2 66182  53.1565 250.8423 0000814  15.4898 344.6128 15.30229370 20475
STARLINK-35310          
1 66183U 25243G   26067.53670433  .00059012  00000+0  19870-2 0  9995
2 66183  53.1566 250.8613 0000600  75.8169 284.2899 15.30229314 20474
STARLINK-35317          
1 66184U 25243H   26067.52404335  .00034400  00000+0  11677-2 0  9992
2 66184  53.1570 250.7874 0001250  94.0504 266.0640 15.30214466 20470
STARLINK-35377          
1 66185U 25243J   26067.53459747  .00031368  00000+0  10661-2 0  9993
2 66185  53.1559 250.8541 0001381  96.6944 263.4214 15.30217669 20477
STARLINK-35365          
1 66186U 25243K   26067.53037505  .00039736  00000+0  13458-2 0  9992
2 66186  53.1572 250.8282 0001438  99.2002 260.9162 15.30219655 20473
STARLINK-35350          
1 66187U 25243L   26067.53776358  .00042202  00000+0  14277-2 0  9991
2 66187  53.1591 250.8736 0002731  82.6070 277.5241 15.30226595 20470
STARLINK-35041          
1 66188U 25243M   26067.52087544  .00039642  00000+0  13426-2 0  9992
2 66188  53.1575 250.7681 0001249  86.5777 273.5367 15.30220737 20478
STARLINK-34694          
1 66189U 25243N   26067.51452207  .00051179  00000+0  17243-2 0  9994
2 66189  53.1583 250.7272 0000946 101.1168 258.9939 15.30272685 20476
STARLINK-34863          
1 66190U 25243P   26067.52720556  .00037966  00000+0  12868-2 0  9998
2 66190  53.1578 250.8075 0001139 106.3022 253.8104 15.30217071 20471
STARLINK-35061          
1 66191U 25243Q   26067.53986864  .00029886  00000+0  10167-2 0  9998
2 66191  53.1559 250.8827 0000927  96.1804 263.9302 15.30214479 20475
STARLINK-34937          
1 66192U 25243R   26067.47772515  .00036249  00000+0  12282-2 0  9999
2 66192  53.1567 251.2073 0001107  89.8078 270.3050 15.30249182 20466
