[{"OBJECT_NAME":"STARLINK-35634","OBJECT_ID":"2025-240AD","EPOCH":"2026-03-08T09:38:30.474240","MEAN_MOTION":15.30206861,"ECCENTRICITY":0.0001348,"INCLINATION":53.16,"RA_OF_ASC_NODE":68.6113,"ARG_OF_PERICENTER":66.2504,"MEAN_ANOMALY":293.8638,"EPHEMERIS_TYPE":0,"CLASSIFICATION_TYPE":"U","NORAD_CAT_ID":66173,"ELEMENT_SET_NO":999,"REV_AT_EPOCH":2179,"BSTAR":0.0015284,"MEAN_MOTION_DOT":0.00045192,"MEAN_MOTION_DDOT":0},{"OBJECT_NAME":"STARLINK-35363","OBJECT_ID":"2025-243B","EPOCH":"2026-03-08T12:33:06.005088","MEAN_MOTION":15.30195213,"ECCENTRICITY":0.0001149,"INCLINATION":53.1577,"RA_OF_ASC_NODE":250.7749,"ARG_OF_PERICENTER":109.7223,"MEAN_ANOMALY":250.3901,"EPHEMERIS_TYPE":0,"CLASSIFICATION_TYPE":"U","NORAD_CAT_ID":66178,"ELEMENT_SET_NO":999,"REV_AT_EPOCH":2047,"BSTAR":0.001182,"MEAN_MOTION_DOT":0.00034809,"MEAN_MOTION_DDOT":0},{"OBJECT_NAME":"STARLINK-35346","OBJECT_ID":"2025-243C","EPOCH":"2026-03-07T19:23:04.680384","MEAN_MOTION":15.30242634,"ECCENTRICITY":0.00010008,"INCLINATION":53.1573,"RA_OF_ASC_NODE":254.1324,"ARG_OF_PERICENTER":106.4988,"MEAN_ANOMALY":253.6123,"EPHEMERIS_TYPE":0,"CLASSIFICATION_TYPE":"U","NORAD_CAT_ID":66179,"ELEMENT_SET_NO":999,"REV_AT_EPOCH":2036,"BSTAR":0.00088509047,"MEAN_MOTION_DOT":0.00025981,"MEAN_MOTION_DDOT":0},{"OBJECT_NAME":"STARLINK-35335","OBJECT_ID":"2025-243D","EPOCH":"2026-03-08T12:42:13.126176","MEAN_MOTION":15.30213145,"ECCENTRICITY":0.000184,"INCLINATION":53.1582,"RA_OF_ASC_NODE":250.8178,"ARG_OF_PERICENTER":108.2636,"MEAN_ANOMALY":251.8565,"EPHEMERIS_TYPE":0,"CLASSIFICATION_TYPE":"U","NORAD_CAT_ID":66180,"ELEMENT_SET_NO":999,"REV_AT_EPOCH":2047,"BSTAR":0.0011297,"MEAN_MOTION_DOT":0.00033264,"MEAN_MOTION_DDOT":0},{"OBJECT_NAME":"STARLINK-35342","OBJECT_ID":"2025-243E","EPOCH":"2026-03-08T12:45:15.378336","MEAN_MOTION":15.30215096,"ECCENTRICITY":0.0001332,"INCLINATION":53.1566,"RA_OF_ASC_NODE":250.8292,"ARG_OF_PERICENTER":100.8916,"MEAN_ANOMALY":259.2235,"EPHEMERIS_TYPE":0,"CLASSIFICATION_TYPE":"U","NORAD_CAT_ID":66181,"ELEMENT_SET_NO":999,"REV_AT_EPOCH":2047,"BSTAR":0.0011741,"MEAN_MOTION_DOT":0.00034592,"MEAN_MOTION_DDOT":0},{"OBJECT_NAME":"STARLINK-35333","OBJECT_ID":"2025-243F","EPOCH":"2026-03-08T12:48:17.597664","MEAN_MOTION":15.3022937,"ECCENTRICITY":8.14e-5,"INCLINATION":53.1565,"RA_OF_ASC_NODE":250.8423,"ARG_OF_PERICENTER":15.4898,"MEAN_ANOMALY":344.6128,"EPHEMERIS_TYPE":0,"CLASSIFICATION_TYPE":"U","NORAD_CAT_ID":66182,"ELEMENT_SET_NO":999,"REV_AT_EPOCH":2047,"BSTAR":0.00084605,"MEAN_MOTION_DOT":0.00024805,"MEAN_MOTION_DDOT":0},{"OBJECT_NAME":"STARLINK-35310","OBJECT_ID":"2025-243G","EPOCH":"2026-03-08T12:52:51.254112","MEAN_MOTION":15.30229314,"ECCENTRICITY":6.0e-5,"INCLINATION":53.1566,"RA_OF_ASC_NODE":250.8613,"ARG_OF_PERICENTER":75.8169,"MEAN_ANOMALY":284.2899,"EPHEMERIS_TYPE":0,"CLASSIFICATION_TYPE":"U","NORAD_CAT_ID":66183,"ELEMENT_SET_NO":999,"REV_AT_EPOCH":2047,"BSTAR":0.001987,"MEAN_MOTION_DOT":0.00059012,"MEAN_MOTION_DDOT":0},{"OBJECT_NAME":"STARLINK-35317","OBJECT_ID":"2025-243H","EPOCH":"2026-03-08T12:34:37.345440","MEAN_MOTION":15.30214466,"ECCENTRICITY":0.000125,"INCLINATION":53.157,"RA_OF_ASC_NODE":250.7874,"ARG_OF_PERICENTER":94.0504,"MEAN_ANOMALY":266.064,"EPHEMERIS_TYPE":0,"CLASSIFICATION_TYPE":"U","NORAD_CAT_ID":66184,"ELEMENT_SET_NO":999,"REV_AT_EPOCH":2047,"BSTAR":0.0011677,"MEAN_MOTION_DOT":0.000344,"MEAN_MOTION_DDOT":0},{"OBJECT_NAME":"STARLINK-35377","OBJECT_ID":"2025-243J","EPOCH":"2026-03-08T12:49:49.221408","MEAN_MOTION":15.30217669,"ECCENTRICITY":0.0001381,"INCLINATION":53.1559,"RA_OF_ASC_NODE":250.8541,"ARG_OF_PERICENTER":96.6944,"MEAN_ANOMALY":263.4214,"EPHEMERIS_TYPE":0,"CLASSIFICATION_TYPE":"U","NORAD_CAT_ID":66185,"ELEMENT_SET_NO":999,"REV_AT_EPOCH":2047,"BSTAR":0.0010661,"MEAN_MOTION_DOT":0.00031368,"MEAN_MOTION_DDOT":0},{"OBJECT_NAME":"STARLINK-35365","OBJECT_ID":"2025-243K","EPOCH":"2026-03-08T12:43:44.404320","MEAN_MOTION":15.30219655,"ECCENTRICITY":0.0001438,"INCLINATION":53.1572,"RA_OF_ASC_NODE":250.8282,"ARG_OF_PERICENTER":99.2002,"MEAN_ANOMALY":260.9162,"EPHEMERIS_TYPE":0,"CLASSIFICATION_TYPE":"U","NORAD_CAT_ID":66186,"ELEMENT_SET_NO":999,"REV_AT_EPOCH":2047,"BSTAR":0.0013458,"MEAN_MOTION_DOT":0.00039736,"MEAN_MOTION_DDOT":0},{"OBJECT_NAME":"STARLINK-35350","OBJECT_ID":"2025-243L","EPOCH":"2026-03-08T12:54:22.773312","MEAN_MOTION":15.30226595,"ECCENTRICITY":0.0002731,"INCLINATION":53.1591,"RA_OF_ASC_NODE":250.8736,"ARG_OF_PERICENTER":82.607,"MEAN_ANOMALY":277.5241,"EPHEMERIS_TYPE":0,"CLASSIFICATION_TYPE":"U","NORAD_CAT_ID":66187,"ELEMENT_SET_NO":999,"REV_AT_EPOCH":2047,"BSTAR":0.0014277,"MEAN_MOTION_DOT":0.00042202,"MEAN_MOTION_DDOT":0},{"OBJECT_NAME":"STARLINK-35041","OBJECT_ID":"2025-243M","EPOCH":"2026-03-08T12:30:03.638016","MEAN_MOTION":15.30220737,"ECCENTRICITY":0.0001249,"INCLINATION":53.1575,"RA_OF_ASC_NODE":250.7681,"ARG_OF_PERICENTER":86.5777,"MEAN_ANOMALY":273.5367,"EPHEMERIS_TYPE":0,"CLASSIFICATION_TYPE":"U","NORAD_CAT_ID":66188,"ELEMENT_SET_NO":999,"REV_AT_EPOCH":2047,"BSTAR":0.0013426,"MEAN_MOTION_DOT":0.00039642,"MEAN_MOTION_DDOT":0},{"OBJECT_NAME":"STARLINK-34694","OBJECT_ID":"2025-243N","EPOCH":"2026-03-08T12:20:54.706848","MEAN_MOTION":15.30272685,"ECCENTRICITY":9.46e-5,"INCLINATION":53.1583,"RA_OF_ASC_NODE":250.7272,"ARG_OF_PERICENTER":101.1168,"MEAN_ANOMALY":258.9939,"EPHEMERIS_TYPE":0,"CLASSIFICATION_TYPE":"U","NORAD_CAT_ID":66189,"ELEMENT_SET_NO":999,"REV_AT_EPOCH":2047,"BSTAR":0.0017243,"MEAN_MOTION_DOT":0.00051179,"MEAN_MOTION_DDOT":0},{"OBJECT_NAME":"STARLINK-34863","OBJECT_ID":"2025-243P","EPOCH":"2026-03-08T12:39:10.560384","MEAN_MOTION":15.30217071,"ECCENTRICITY":0.0001139,"INCLINATION":53.1578,"RA_OF_ASC_NODE":250.8075,"ARG_OF_PERICENTER":106.3022,"MEAN_ANOMALY":253.8104,"EPHEMERIS_TYPE":0,"CLASSIFICATION_TYPE":"U","NORAD_CAT_ID":66190,"ELEMENT_SET_NO":999,"REV_AT_EPOCH":2047,"BSTAR":0.0012868,"MEAN_MOTION_DOT":0.00037966,"MEAN_MOTION_DDOT":0},{"OBJECT_NAME":"STARLINK-35061","OBJECT_ID":"2025-243Q","EPOCH":"2026-03-08T12:57:24.650496","MEAN_MOTION":15.30214479,"ECCENTRICITY":9.27e-5,"INCLINATION":53.1559,"RA_OF_ASC_NODE":250.8827,"ARG_OF_PERICENTER":96.1804,"MEAN_ANOMALY":263.9302,"EPHEMERIS_TYPE":0,"CLASSIFICATION_TYPE":"U","NORAD_CAT_ID":66191,"ELEMENT_SET_NO":999,"REV_AT_EPOCH":2047,"BSTAR":0.0010167,"MEAN_MOTION_DOT":0.00029886,"MEAN_MOTION_DDOT":0},{"OBJECT_NAME":"STARLINK-34937","OBJECT_ID":"2025-243R","EPOCH":"2026-03-08T11:27:55.452960","MEAN_MOTION":15.30249182,"ECCENTRICITY":0.0001107,"INCLINATION":53.1567,"RA_OF_ASC_NODE":251.2073,"ARG_OF_PERICENTER":89.8078,"MEAN_ANOMALY":270.305,"EPHEMERIS_TYPE":0,"CLASSIFICATION_TYPE":"U","NORAD_CAT_ID":66192,"ELEMENT_SET_NO":999,"REV_AT_EPOCH":2046,"BSTAR":0.0012282,"MEAN_MOTION_DOT":0.00036249,"MEAN_MOTION_DDOT":0}]
